[
    {
        "Altitude(m)": 607910.9911767554,
        "Argument of Periapsis(deg)": 0.0,
        "Eccentricity": 0.0,
        "Inclination(deg)": 60.0,
        "Latitude(deg)": -14.292843522241574,
        "Longitude(deg)": 63.44266667465851,
        "Mean Anomaly(deg)": -163.6364,
        "RAAN(deg)": 335.0,
        "Satellite Name": "Test1 1486",
        "Satellite Number": 1486,
        "Semi-Major Axis(m)": 6980739.136638005,
        "Time(s)": 0
    },
    {
        "Altitude(m)": 608060.2240931259,
        "Argument of Periapsis(deg)": 0.00010418945913296404,
        "Eccentricity": 0.0,
        "Inclination(deg)": 60.0,
        "Latitude(deg)": -14.82650454794103,
        "Longitude(deg)": 63.73127672928824,
        "Mean Anomaly(deg)": -163.01629385453816,
        "RAAN(deg)": 334.99957995086027,
        "Satellite Name": "Test1 1486",
        "Satellite Number": 1486,
        "Semi-Major Axis(m)": 6980739.136638005,
        "Time(s)": 10
    }
]